STARLINK-5038           
1 56472U 23064AA  26068.59306089  .00001689  00000+0  14923-3 0  9996
2 56472  70.0006 124.7539 0002868 262.8669  97.2164 14.98345369155724
CENTAURI-8              
1 62714U 25009DK  26068.72637183  .00004445  00000+0  38891-3 0  9993
2 62714  97.7096 150.1876 0003020 109.5881 250.5667 14.97228330 62597
